[{"OBJECT_NAME":"YUNYAO-1 43","OBJECT_ID":"2025-059A","EPOCH":"2026-03-09T23:54:24.516576","MEAN_MOTION":15.10329109,"ECCENTRICITY":0.00157026,"INCLINATION":97.608,"RA_OF_ASC_NODE":250.9377,"ARG_OF_PERICENTER":132.1084,"MEAN_ANOMALY":228.1483,"EPHEMERIS_TYPE":0,"CLASSIFICATION_TYPE":"U","NORAD_CAT_ID":63344,"ELEMENT_SET_NO":999,"REV_AT_EPOCH":5332,"BSTAR":0.00032498885,"MEAN_MOTION_DOT":5.279e-5,"MEAN_MOTION_DDOT":0},{"OBJECT_NAME":"STARLINK-34969","OBJECT_ID":"2025-179G","EPOCH":"2026-03-09T15:46:24.233088","MEAN_MOTION":15.05662612,"ECCENTRICITY":0.00019639,"INCLINATION":97.6036,"RA_OF_ASC_NODE":112.935,"ARG_OF_PERICENTER":125.6061,"MEAN_ANOMALY":234.5349,"EPHEMERIS_TYPE":0,"CLASSIFICATION_TYPE":"U","NORAD_CAT_ID":65241,"ELEMENT_SET_NO":999,"REV_AT_EPOCH":3181,"BSTAR":-1.2887071e-5,"MEAN_MOTION_DOT":-2.47e-6,"MEAN_MOTION_DDOT":0}]
